ONEWEB-0234             
1 48783U 21045S   25317.00649829 -.00000015  00000+0 -74750-4 0  9992
2 48783  87.8959 302.3155 0002010  62.5254 297.6081 13.15549468216057
ONEWEB-0238             
1 48784U 21045T   25317.00679711 -.00000066  00000+0 -20814-3 0  9993
2 48784  87.8960 302.3097 0001855  77.7717 282.3621 13.15548521215951
ONEWEB-0240             
1 48785U 21045U   25316.95198396 -.00000405  00000+0 -11094-2 0  9998
2 48785  87.8981 302.3112 0002358  85.7013 274.4386 13.15553152215978
ONEWEB-0246             
1 48786U 21045V   25317.25065382  .00002349  00000+0  62020-2 0  9993
2 48786  87.8993 302.2604 0003276  86.9897 273.1609 13.15568717215887
ONEWEB-0210             
1 48787U 21045W   25316.99714302 -.00000024  00000+0 -98455-4 0  9990
2 48787  87.8961 302.3136 0002259 104.4823 255.6558 13.15549575215899
ONEWEB-0214             
1 48788U 21045X   25317.00586451 -.00000069  00000+0 -21802-3 0  9996
2 48788  87.8980 302.2999 0001972 101.3782 258.7570 13.15549042215862
ONEWEB-0221             
1 48789U 21045Y   25317.24115206  .00000068  00000+0  14786-3 0  9999
2 48789  87.8957 302.2723 0002054  90.9768 269.1598 13.15550225215985
ONEWEB-0213             
1 48790U 21045Z   25317.00190467 -.00000056  00000+0 -18325-3 0  9999
2 48790  87.8963 302.3291 0002085  93.3857 266.7512 13.15549040216012
ONEWEB-0212             
1 48791U 21045AA  25317.20710285 -.00000076  00000+0 -23639-3 0  9994
2 48791  87.8969 302.2755 0001851  85.4783 274.6558 13.15548457216034
ONEWEB-0227             
1 48792U 21045AB  25317.20628540  .00000002  00000+0 -28992-4 0  9993
2 48792  87.8960 302.2891 0001982  88.8112 271.3246 13.15550806215987
ONEWEB-0226             
1 48793U 21045AC  25317.19996303  .00000080  00000+0  17779-3 0  9992
2 48793  87.8963 302.2989 0002073  96.4231 263.7135 13.15550615215955
ONEWEB-0224             
1 48794U 21045AD  25317.23957624 -.00000191  00000+0 -54251-3 0  9992
2 48794  87.8975 302.3250 0002948  75.2892 284.8565 13.15550597215882
ONEWEB-0233             
1 48795U 21045AE  25317.24418491  .00000153  00000+0  37252-3 0  9996
2 48795  87.8960 302.3359 0002189  88.6135 271.5246 13.15550328215906
ONEWEB-0190             
1 48796U 21045AF  25317.00347548 -.00000223  00000+0 -62541-3 0  9994
2 48796  87.8960 302.3458 0002589  97.5144 262.6281 13.15549588215940
ONEWEB-0236             
1 48797U 21045AG  25317.24908242  .00000165  00000+0  40469-3 0  9993
2 48797  87.8958 302.3081 0001761  84.1141 276.0190 13.15549619215864
ONEWEB-0248             
1 48798U 21045AH  25316.95753824  .00000226  00000+0  56626-3 0  9995
2 48798  87.8968 302.3268 0002459  85.6421 274.4990 13.15548277215987
