[{"OBJECT_NAME":"ONEWEB-0234","OBJECT_ID":"2021-045S","EPOCH":"2025-11-13T00:09:21.452256","MEAN_MOTION":13.15549468,"ECCENTRICITY":0.00020106,"INCLINATION":87.8959,"RA_OF_ASC_NODE":302.3155,"ARG_OF_PERICENTER":62.5254,"MEAN_ANOMALY":297.6081,"EPHEMERIS_TYPE":0,"CLASSIFICATION_TYPE":"U","NORAD_CAT_ID":48783,"ELEMENT_SET_NO":999,"REV_AT_EPOCH":21605,"BSTAR":-7.474957e-5,"MEAN_MOTION_DOT":-1.5e-7,"MEAN_MOTION_DDOT":0},{"OBJECT_NAME":"ONEWEB-0238","OBJECT_ID":"2021-045T","EPOCH":"2025-11-13T00:09:47.270304","MEAN_MOTION":13.15548521,"ECCENTRICITY":0.00018554,"INCLINATION":87.896,"RA_OF_ASC_NODE":302.3097,"ARG_OF_PERICENTER":77.7717,"MEAN_ANOMALY":282.3621,"EPHEMERIS_TYPE":0,"CLASSIFICATION_TYPE":"U","NORAD_CAT_ID":48784,"ELEMENT_SET_NO":999,"REV_AT_EPOCH":21595,"BSTAR":-0.00020813712,"MEAN_MOTION_DOT":-6.6e-7,"MEAN_MOTION_DDOT":0},{"OBJECT_NAME":"ONEWEB-0240","OBJECT_ID":"2021-045U","EPOCH":"2025-11-12T22:50:51.414144","MEAN_MOTION":13.15553152,"ECCENTRICITY":0.0002358,"INCLINATION":87.8981,"RA_OF_ASC_NODE":302.3112,"ARG_OF_PERICENTER":85.7013,"MEAN_ANOMALY":274.4386,"EPHEMERIS_TYPE":0,"CLASSIFICATION_TYPE":"U","NORAD_CAT_ID":48785,"ELEMENT_SET_NO":999,"REV_AT_EPOCH":21597,"BSTAR":-0.0011094,"MEAN_MOTION_DOT":-4.05e-6,"MEAN_MOTION_DDOT":0},{"OBJECT_NAME":"ONEWEB-0246","OBJECT_ID":"2021-045V","EPOCH":"2025-11-13T06:00:56.490048","MEAN_MOTION":13.15568717,"ECCENTRICITY":0.00032769,"INCLINATION":87.8993,"RA_OF_ASC_NODE":302.2604,"ARG_OF_PERICENTER":86.9897,"MEAN_ANOMALY":273.1609,"EPHEMERIS_TYPE":0,"CLASSIFICATION_TYPE":"U","NORAD_CAT_ID":48786,"ELEMENT_SET_NO":999,"REV_AT_EPOCH":21588,"BSTAR":0.0062020073,"MEAN_MOTION_DOT":2.349e-5,"MEAN_MOTION_DDOT":0},{"OBJECT_NAME":"ONEWEB-0210","OBJECT_ID":"2021-045W","EPOCH":"2025-11-12T23:55:53.156928","MEAN_MOTION":13.15549575,"ECCENTRICITY":0.00022593,"INCLINATION":87.8961,"RA_OF_ASC_NODE":302.3136,"ARG_OF_PERICENTER":104.4823,"MEAN_ANOMALY":255.6558,"EPHEMERIS_TYPE":0,"CLASSIFICATION_TYPE":"U","NORAD_CAT_ID":48787,"ELEMENT_SET_NO":999,"REV_AT_EPOCH":21589,"BSTAR":-9.845488e-5,"MEAN_MOTION_DOT":-2.4e-7,"MEAN_MOTION_DDOT":0},{"OBJECT_NAME":"ONEWEB-0214","OBJECT_ID":"2021-045X","EPOCH":"2025-11-13T00:08:26.693664","MEAN_MOTION":13.15549042,"ECCENTRICITY":0.00019721,"INCLINATION":87.898,"RA_OF_ASC_NODE":302.2999,"ARG_OF_PERICENTER":101.3782,"MEAN_ANOMALY":258.757,"EPHEMERIS_TYPE":0,"CLASSIFICATION_TYPE":"U","NORAD_CAT_ID":48788,"ELEMENT_SET_NO":999,"REV_AT_EPOCH":21586,"BSTAR":-0.00021801629,"MEAN_MOTION_DOT":-6.9e-7,"MEAN_MOTION_DDOT":0},{"OBJECT_NAME":"ONEWEB-0221","OBJECT_ID":"2021-045Y","EPOCH":"2025-11-13T05:47:15.537984","MEAN_MOTION":13.15550225,"ECCENTRICITY":0.00020541,"INCLINATION":87.8957,"RA_OF_ASC_NODE":302.2723,"ARG_OF_PERICENTER":90.9768,"MEAN_ANOMALY":269.1598,"EPHEMERIS_TYPE":0,"CLASSIFICATION_TYPE":"U","NORAD_CAT_ID":48789,"ELEMENT_SET_NO":999,"REV_AT_EPOCH":21598,"BSTAR":0.00014785613,"MEAN_MOTION_DOT":6.8e-7,"MEAN_MOTION_DDOT":0},{"OBJECT_NAME":"ONEWEB-0213","OBJECT_ID":"2021-045Z","EPOCH":"2025-11-13T00:02:44.563488","MEAN_MOTION":13.1554904,"ECCENTRICITY":0.00020859,"INCLINATION":87.8963,"RA_OF_ASC_NODE":302.3291,"ARG_OF_PERICENTER":93.3857,"MEAN_ANOMALY":266.7512,"EPHEMERIS_TYPE":0,"CLASSIFICATION_TYPE":"U","NORAD_CAT_ID":48790,"ELEMENT_SET_NO":999,"REV_AT_EPOCH":21601,"BSTAR":-0.00018324922,"MEAN_MOTION_DOT":-5.6e-7,"MEAN_MOTION_DDOT":0},{"OBJECT_NAME":"ONEWEB-0212","OBJECT_ID":"2021-045AA","EPOCH":"2025-11-13T04:58:13.686240","MEAN_MOTION":13.15548457,"ECCENTRICITY":0.00018515,"INCLINATION":87.8969,"RA_OF_ASC_NODE":302.2755,"ARG_OF_PERICENTER":85.4783,"MEAN_ANOMALY":274.6558,"EPHEMERIS_TYPE":0,"CLASSIFICATION_TYPE":"U","NORAD_CAT_ID":48791,"ELEMENT_SET_NO":999,"REV_AT_EPOCH":21603,"BSTAR":-0.00023638892,"MEAN_MOTION_DOT":-7.6e-7,"MEAN_MOTION_DDOT":0},{"OBJECT_NAME":"ONEWEB-0227","OBJECT_ID":"2021-045AB","EPOCH":"2025-11-13T04:57:03.058560","MEAN_MOTION":13.15550806,"ECCENTRICITY":0.00019828,"INCLINATION":87.896,"RA_OF_ASC_NODE":302.2891,"ARG_OF_PERICENTER":88.8112,"MEAN_ANOMALY":271.3246,"EPHEMERIS_TYPE":0,"CLASSIFICATION_TYPE":"U","NORAD_CAT_ID":48792,"ELEMENT_SET_NO":999,"REV_AT_EPOCH":21598,"BSTAR":-2.8991787e-5,"MEAN_MOTION_DOT":2.0e-8,"MEAN_MOTION_DDOT":0},{"OBJECT_NAME":"ONEWEB-0226","OBJECT_ID":"2021-045AC","EPOCH":"2025-11-13T04:47:56.805792","MEAN_MOTION":13.15550615,"ECCENTRICITY":0.00020737,"INCLINATION":87.8963,"RA_OF_ASC_NODE":302.2989,"ARG_OF_PERICENTER":96.4231,"MEAN_ANOMALY":263.7135,"EPHEMERIS_TYPE":0,"CLASSIFICATION_TYPE":"U","NORAD_CAT_ID":48793,"ELEMENT_SET_NO":999,"REV_AT_EPOCH":21595,"BSTAR":0.00017778653,"MEAN_MOTION_DOT":8.0e-7,"MEAN_MOTION_DDOT":0},{"OBJECT_NAME":"ONEWEB-0224","OBJECT_ID":"2021-045AD","EPOCH":"2025-11-13T05:44:59.387136","MEAN_MOTION":13.15550597,"ECCENTRICITY":0.00029485,"INCLINATION":87.8975,"RA_OF_ASC_NODE":302.325,"ARG_OF_PERICENTER":75.2892,"MEAN_ANOMALY":284.8565,"EPHEMERIS_TYPE":0,"CLASSIFICATION_TYPE":"U","NORAD_CAT_ID":48794,"ELEMENT_SET_NO":999,"REV_AT_EPOCH":21588,"BSTAR":-0.00054250846,"MEAN_MOTION_DOT":-1.91e-6,"MEAN_MOTION_DDOT":0},{"OBJECT_NAME":"ONEWEB-0233","OBJECT_ID":"2021-045AE","EPOCH":"2025-11-13T05:51:37.576224","MEAN_MOTION":13.15550328,"ECCENTRICITY":0.0002189,"INCLINATION":87.896,"RA_OF_ASC_NODE":302.3359,"ARG_OF_PERICENTER":88.6135,"MEAN_ANOMALY":271.5246,"EPHEMERIS_TYPE":0,"CLASSIFICATION_TYPE":"U","NORAD_CAT_ID":48795,"ELEMENT_SET_NO":999,"REV_AT_EPOCH":21590,"BSTAR":0.00037251702,"MEAN_MOTION_DOT":1.53e-6,"MEAN_MOTION_DDOT":0},{"OBJECT_NAME":"ONEWEB-0190","OBJECT_ID":"2021-045AF","EPOCH":"2025-11-13T00:05:00.281472","MEAN_MOTION":13.15549588,"ECCENTRICITY":0.00025895,"INCLINATION":87.896,"RA_OF_ASC_NODE":302.3458,"ARG_OF_PERICENTER":97.5144,"MEAN_ANOMALY":262.6281,"EPHEMERIS_TYPE":0,"CLASSIFICATION_TYPE":"U","NORAD_CAT_ID":48796,"ELEMENT_SET_NO":999,"REV_AT_EPOCH":21594,"BSTAR":-0.00062540595,"MEAN_MOTION_DOT":-2.23e-6,"MEAN_MOTION_DDOT":0},{"OBJECT_NAME":"ONEWEB-0236","OBJECT_ID":"2021-045AG","EPOCH":"2025-11-13T05:58:40.721088","MEAN_MOTION":13.15549619,"ECCENTRICITY":0.00017613,"INCLINATION":87.8958,"RA_OF_ASC_NODE":302.3081,"ARG_OF_PERICENTER":84.1141,"MEAN_ANOMALY":276.019,"EPHEMERIS_TYPE":0,"CLASSIFICATION_TYPE":"U","NORAD_CAT_ID":48797,"ELEMENT_SET_NO":999,"REV_AT_EPOCH":21586,"BSTAR":0.00040469245,"MEAN_MOTION_DOT":1.65e-6,"MEAN_MOTION_DDOT":0},{"OBJECT_NAME":"ONEWEB-0248","OBJECT_ID":"2021-045AH","EPOCH":"2025-11-12T22:58:51.303936","MEAN_MOTION":13.15548277,"ECCENTRICITY":0.0002459,"INCLINATION":87.8968,"RA_OF_ASC_NODE":302.3268,"ARG_OF_PERICENTER":85.6421,"MEAN_ANOMALY":274.499,"EPHEMERIS_TYPE":0,"CLASSIFICATION_TYPE":"U","NORAD_CAT_ID":48798,"ELEMENT_SET_NO":999,"REV_AT_EPOCH":21598,"BSTAR":0.00056626,"MEAN_MOTION_DOT":2.26e-6,"MEAN_MOTION_DDOT":0}]
